{"fetched_at":"2026-04-02T13:12:04Z","count":8785,"tles":[{"name":"TJS-23","line1":"1 67226U 25306A   26090.81393755 -.00000005  00000+0  00000+0 0  9991","line2":"2 67226   5.7651 297.8690 0006465 117.4372 242.3734  1.00273689  1110","category":"Other"},{"name":"FLOCK 4E'-8","line1":"1 46816U 20077D   23362.19550388  .00045639  00000+0  65497-3 0  9996","line2":"2 46816  97.3484  73.1586 0006243 160.4804 199.6691 15.55980420176330","category":"Other"},{"name":"STARLINK-11740 [DTC]","line1":"1 64382U 25127N   26091.94705720  .00177200  00000+0  13535-2 0  9997","line2":"2 64382  43.0003 304.0310 0002083 282.4048  77.6586 15.70870492 47167","category":"Starlink"},{"name":"GHGSAT-C6","line1":"1 56204U 23054AC  26092.23044716  .00021104  00000+0  36802-3 0  9996","line2":"2 56204  97.3108   0.8842 0005437 335.4795  24.6198 15.50729836166676","category":"Other"},{"name":"STARLINK-37160","line1":"1 68282U 26055W   26092.16670139 -.01500557  00000+0 -71667-2 0  9999","line2":"2 68282  53.1579 219.4880 0000819  77.8655  32.2269 15.84748824  3408","category":"Starlink"},{"name":"AEROCUBE 16A","line1":"1 59290U 24053C   26092.12546896  .00020243  00000+0  48177-3 0  9999","line2":"2 59290  49.9918 350.8579 0002356  34.0902 326.0211 15.41549577109360","category":"Other"},{"name":"STARLINK-34674","line1":"1 65526U 25200G   26092.14784399  .00007188  00000+0  50170-3 0  9996","line2":"2 65526  97.6021 162.9696 0000549 201.3453 158.7751 15.05662326 32674","category":"Starlink"},{"name":"COSMOS 2251 DEB","line1":"1 40796U 93036BVZ 26089.29466306  .00007755  00000+0  92586-3 0  9994","line2":"2 40796  74.0110 289.1509 0052838  38.6425 137.4520 14.83375696777521","category":"Other"},{"name":"KUIPER-00029","line1":"1 63742U 25088U   26091.99736758 -.00000028  00000+0  25408-4 0  9990","line2":"2 63742  51.9058 347.5380 0000797  96.9168 263.1885 14.79918134 51077","category":"Other"},{"name":"FENGYUN 1C DEB","line1":"1 31561U 99025BZC 26091.78298006  .00000464  00000+0  32232-3 0  9997","line2":"2 31561  98.7251  88.1943 0055027 234.8355 305.1817 14.02937768967219","category":"Weather"},{"name":"SMOG-1","line1":"1 47964U 21022AJ  24209.98015345  .12039603  26070-5  10242-2 0  9994","line2":"2 47964  97.4276 125.0060 0011656 220.2318 139.8119 16.39369715184698","category":"Other"},{"name":"STARLINK-32252","line1":"1 60442U 24144T   26092.20388337  .00000563  00000+0  31150-4 0  9991","line2":"2 60442  53.1594 107.5966 0001096  86.1168 273.9958 15.30196238 92951","category":"Starlink"},{"name":"STARLINK-35963","line1":"1 66585U 25268AE  26091.62729001  .00024410  00000+0  89334-3 0  9998","line2":"2 66585  42.9978 217.8772 0000942 285.0971  74.9777 15.27590384 21460","category":"Starlink"},{"name":"INMARSAT GX5","line1":"1 44801U 19080B   26092.18308536  .00000000  00000+0  00000+0 0  9996","line2":"2 44801   0.0199  30.6863 0001988 354.9664 241.7894  1.00270571  6023","category":"Other"},{"name":"COSMOS 2251 DEB","line1":"1 34682U 93036YC  26092.14544544  .00003780  00000+0  79611-3 0  9998","line2":"2 34682  74.0379 232.5659 0018555 331.5761 208.1258 14.59743494902969","category":"Other"},{"name":"GOES 12","line1":"1 26871U 01031A   26091.62245960 -.00000132  00000+0  00000+0 0  9996","line2":"2 26871  12.0472  37.9051 0008497 302.1475 258.8565  0.99139983 90006","category":"Weather"},{"name":"STARLINK-3245","line1":"1 50170U 21125Q   26092.15170893 -.00000195  00000+0  58400-5 0  9994","line2":"2 50170  53.2168 143.7964 0001480  90.5211 269.5951 15.08840437240132","category":"Starlink"},{"name":"FENGYUN 1C DEB","line1":"1 37920U 99025ENV 23164.11819687  .00002665  00000+0  14003-2 0  9991","line2":"2 37920  98.8990 226.1619 0060692 319.7863  69.8296 14.14045964666841","category":"Weather"},{"name":"FENGYUN 1C DEB","line1":"1 30717U 99025ASB 26092.18856869  .00003708  00000+0  17039-2 0  9992","line2":"2 30717  99.0054 170.1284 0044683 302.3445  57.3409 14.21302952981056","category":"Weather"},{"name":"STARLINK-3962","line1":"1 52708U 22053BE  26092.08685820  .00004896  00000+0  32551-3 0  9995","line2":"2 52708  53.2197  29.0736 0000874 106.6121 253.4967 15.08833163215051","category":"Starlink"},{"name":"STARLINK-5471","line1":"1 54766U 22175J   26090.91017490  .00000023  00000+0  19549-4 0  9999","line2":"2 54766  53.2176 304.3649 0001468  84.8704 275.2456 15.08836085183279","category":"Starlink"},{"name":"STARLINK-32172","line1":"1 61518U 24183K   26092.13791570 -.00000986  00000+0 -21193-4 0  9995","line2":"2 61518  53.1626  33.4385 0001152  74.2333 285.8795 15.30189647 83248","category":"Starlink"},{"name":"FENGYUN 1C DEB","line1":"1 47007U 99025FAH 26091.84532277  .00003732  00000+0  20902-2 0  9998","line2":"2 47007  98.2075 307.3346 0233581 103.4675 259.2635 13.98310194803872","category":"Weather"},{"name":"LEMUR-2-SANITA-VETRA","line1":"1 58267U 23174M   23361.89139690  .00017577  00000+0  94719-3 0  9994","line2":"2 58267  97.4738  73.9950 0011904 123.7480 236.4888 15.14796619  7589","category":"Other"},{"name":"STARLINK-34402","line1":"1 64446U 25130J   26091.98122242  .00028111  00000+0  95722-3 0  9993","line2":"2 64446  53.1596 340.0281 0001268  91.4860 268.6286 15.30213936 44276","category":"Starlink"},{"name":"STARLINK-6035","line1":"1 56323U 23058G   26091.93406458  .00000488  00000+0  38034-4 0  9995","line2":"2 56323  97.6035  93.0565 0001623  97.2582 262.8829 15.05647816161260","category":"Starlink"},{"name":"FLOCK 4G-17","line1":"1 62681U 25009CA  26092.20587653  .00018086  00000+0  66446-3 0  9995","line2":"2 62681  97.3947 174.0901 0003815 226.9669 133.1251 15.27966418124948","category":"Other"},{"name":"STARLINK-37169","line1":"1 68346U 26059AB  26092.16670139 -.00070272  00000+0 -35501-3 0  9997","line2":"2 68346  53.1594 245.0030 0000719  92.9238 128.5136 15.80896790  2810","category":"Starlink"},{"name":"STARLINK-31559","line1":"1 59358U 24060L   26092.15861354 -.00004869  00000+0 -16752-3 0  9996","line2":"2 59358  43.0055 127.1850 0001928 286.5544  73.5096 15.27578172113658","category":"Starlink"},{"name":"COSMOS 2596 (708K)","line1":"1 65590U 25206B   26092.15471422 -.00000045  00000+0  00000+0 0  9993","line2":"2 65590  64.6779 317.6334 0012170 317.2653 186.0643  2.13100517  4294","category":"Other"},{"name":"FENGYUN 1C DEB","line1":"1 31679U 99025CCM 23142.65782849  .00013045  00000+0  29779-2 0  9990","line2":"2 31679  98.9098  84.6769 0064263  13.0361 347.2476 14.54621866454566","category":"Weather"},{"name":"NATO 3A","line1":"1 08808U 76035A   26091.64930220  .00000082  00000+0  00000+0 0  9997","line2":"2 08808   5.1519 298.6174 0026100 328.5335 358.8225  0.99846411746509","category":"Other"},{"name":"ONEWEB-0161","line1":"1 48053U 21025M   26092.14369475  .00000039  00000+0  72325-4 0  9992","line2":"2 48053  87.9007 335.3598 0001654  73.3520 286.7791 13.13468296243524","category":"Other"},{"name":"STARLINK-1114","line1":"1 44927U 20001P   26092.17880242  .00137272  00000+0  20179-2 0  9992","line2":"2 44927  53.0468 216.2574 0004525 226.3428 133.7208 15.54523579343745","category":"Starlink"},{"name":"COSMOS 2251 DEB","line1":"1 34853U 93036ABX 23179.44039430  .01228531  00000+0  97187-2 0  9998","line2":"2 34853  74.0405 341.3594 0011692 248.4678 111.5299 15.68573199763224","category":"Other"},{"name":"ARIANE 3 DEB","line1":"1 27648U 84081F   26090.39801996 -.00000214  00000+0  10506-1 0  9990","line2":"2 27648   5.4660  54.6037 7166849 166.4767 235.3620  2.10233401204848","category":"Other"},{"name":"ONEWEB-0412","line1":"1 50489U 21132W   26092.15206852  .00000075  00000+0  15854-3 0  9990","line2":"2 50489  87.9235 350.5709 0001820  89.2184 270.9157 13.18687669211633","category":"Other"},{"name":"COSMOS 2251 DEB","line1":"1 38068U 93036BSA 26087.47442067  .00000556  00000+0  19884-3 0  9991","line2":"2 38068  74.0195 113.9319 0026136 183.8605 176.2350 14.36179829681648","category":"Other"},{"name":"FENGYUN 1C DEB","line1":"1 30827U 99025AVM 26088.91948315  .00008810  00000+0  27868-2 0  9998","line2":"2 30827  99.0118  84.6383 0041488 223.0552 136.7387 14.39892607980906","category":"Weather"},{"name":"STARLINK-4091","line1":"1 52830U 22062A   26091.96727731 -.00000454  00000+0 -10455-4 0  9993","line2":"2 52830  53.2165 289.8172 0001077  93.8393 266.2723 15.08836468209298","category":"Starlink"},{"name":"STARLINK-5369","line1":"1 54837U 22177T   26092.16670139  .00192104  00000+0  53793-2 0  9993","line2":"2 54837  43.0014   2.9570 0000674 255.2593 328.1009 15.35150083  5663","category":"Starlink"},{"name":"STARLINK-11368 [DTC]","line1":"1 61583U 24187K   26091.97182776 -.00000289  00000+0  24761-5 0  9994","line2":"2 61583  53.1606 181.7279 0001376  92.5756 267.5419 15.69710950 84359","category":"Starlink"},{"name":"STARLINK-36448","line1":"1 67354U 26003W   26092.03579289  .00022713  00000+0  83174-3 0  9998","line2":"2 67354  42.9997  95.2738 0001028 261.4473  98.6262 15.27603709 12397","category":"Starlink"},{"name":"STARLINK-1873","line1":"1 47158U 20088AN  26092.16670139  .00143851  00000+0  15987-2 0  9998","line2":"2 47158  53.0465 154.6220 0003245 265.5540 343.8787 15.61940464  5758","category":"Starlink"},{"name":"KUIPER-00052","line1":"1 64512U 25134N   26060.64619447  .09316208  12060-4  32752-2 0  9991","line2":"2 64512  51.8288 144.9445 0006774 329.5539  30.5090 16.24339733 40577","category":"Other"},{"name":"STARLINK-6300","line1":"1 56390U 23061S   23361.86984843  .00000727  00000+0  68907-4 0  9999","line2":"2 56390  43.0029 227.2882 0001199 269.5358  90.5347 15.02536266 36139","category":"Starlink"},{"name":"STARLINK-32762","line1":"1 62748U 25014P   26092.18921622  .00046218  00000+0  16765-2 0  9996","line2":"2 62748  43.0036  24.9399 0001592 258.8402 101.2271 15.27618899 66818","category":"Starlink"},{"name":"STARLINK-5511","line1":"1 75511C 23094AL  23189.76784722  .00425157  00000-0  61269-3 0  1895","line2":"2 75511  42.9956 313.5232 0076901 152.3893  56.9107 15.98221467    13","category":"Starlink"}]}